NOAA 15                 
1 25338U 98030A   20178.83657255  .00000049  00000-0  39055-4 0  9999
2 25338  98.7159 203.8398 0009474 231.2660 128.7674 14.25974872150313
DMSP 5D-3 F15 (USA 147) 
1 25991U 99067A   20178.90107753 -.00000100  00000-0 -27645-4 0  9998
2 25991  98.9699 150.3409 0010971  74.9135 315.9874 14.16482063 61769
METEOSAT-8 (MSG-1)      
1 27509U 02040B   20178.82340227  .00000134  00000-0  00000-0 0  9993
2 27509   6.7405  54.0702 0002150  26.2062 173.0768  1.00264400 65382
DMSP 5D-3 F16 (USA 172) 
1 28054U 03048A   20178.92430497 -.00000105  00000-0 -31764-4 0  9993
2 28054  98.9120 157.9508 0007084 188.5484 198.7017 14.13654552861129
NOAA 18                 
1 28654U 05018A   20178.86738691  .00000081  00000-0  68479-4 0  9992
2 28654  99.0429 235.3842 0013975 200.4316 159.6298 14.12520735778246
METEOSAT-9 (MSG-2)      
1 28912U 05049B   20178.81589998  .00000015  00000-0  00000+0 0  9990
2 28912   4.4443  70.1192 0002499   1.6975 140.8942  1.00264857 53206
FORMOSAT-3 FM6          
1 29047U 06011A   20178.85866425  .00000095  00000-0  53284-4 0  9992
2 29047  71.9793  90.7969 0049252  44.3082 316.1980 14.28735119742667
FORMOSAT-3 FM1          
1 29048U 06011B   20178.94755676  .00000049  00000-0  35807-4 0  9998
2 29048  71.9667   1.5140 0043803   1.6103 358.5166 14.28704431745162
FORMOSAT-3 FM5          
1 29049U 06011C   20178.45795987  .00000016  00000-0  22424-4 0  9999
2 29049  72.0188 174.2110 0034133  28.2907 332.0073 14.28785905740884
FORMOSAT-3 FM3          
1 29050U 06011D   20179.08397467  .00000101  00000-0  31587-4 0  9997
2 29050  72.0163 318.0468 0051254 306.3207  53.3219 14.58923041757835
FORMOSAT-3 FM4          
1 29051U 06011E   20178.87769417  .00000030  00000-0  27900-4 0  9997
2 29051  72.0064  75.3955 0069845 268.5620  90.7515 14.28816694743531
FORMOSAT-3 FM2          
1 29052U 06011F   20178.31676826  .00000033  00000-0  29256-4 0  9997
2 29052  72.0334 150.7694 0040567 348.0906  11.9267 14.28921518740966
GOES 13                 
1 29155U 06018A   20178.82823622  .00000035  00000-0  00000-0 0  9996
2 29155   0.1283 251.3568 0006026 296.3811  87.3471  1.00274910 21492
METOP-A                 
1 29499U 06044A   20178.89175807 -.00000018  00000-0  10893-4 0  9995
2 29499  98.5212 225.3581 0000920 117.5363  64.0351 14.21500602710047
DMSP 5D-3 F17 (USA 191) 
1 29522U 06050A   20178.89661021 -.00000105  00000-0 -32094-4 0  9992
2 29522  98.8012 195.1556 0010387 145.0931 215.0925 14.14018248704046
FENGYUN 3A              
1 32958U 08026A   20178.87411031 -.00000010  00000-0  15175-4 0  9991
2 32958  98.4060 164.1236 0007860 316.0610  43.9941 14.18627949626057
FENGYUN 2E              
1 33463U 08066A   20178.88345134 -.00000203  00000-0  00000+0 0  9998
2 33463   4.3617  68.5097 0003336 313.8199 297.6325  1.00266303 42210
NOAA 19                 
1 33591U 09005A   20178.94278023  .00000071  00000-0  63610-4 0  9996
2 33591  99.1947 184.5374 0014818  52.2026 308.0484 14.12417369586478
GOES 14                 
1 35491U 09033A   20178.61903880 -.00000094  00000-0  00000-0 0  9994
2 35491   0.3436  98.1110 0008617 117.4919 178.1410  1.00270200 40248
METEOR-M 1              
1 35865U 09049A   20178.94514877  .00000005  00000-0  20922-4 0  9996
2 35865  98.4383 165.5830 0002882 139.6670 220.4723 14.22241442559267
DMSP 5D-3 F18 (USA 210) 
1 35951U 09057A   20178.88082535  .00000037  00000-0  42226-4 0  9991
2 35951  98.6444 168.4541 0010804 348.4620  11.6303 14.13278130325014
GOES 15                 
1 36411U 10008A   20178.60156348  .00000054  00000-0  00000-0 0  9994
2 36411   0.0986 267.2405 0002908 155.7479 300.7468  1.00263168 37794
COMS 1                  
1 36744U 10032A   20179.11160562 -.00000346  00000-0  00000+0 0  9994
2 36744   0.0337  80.9696 0000807   8.4991 354.5479  1.00271897 36789
FENGYUN 3B              
1 37214U 10059A   20179.09967488 -.00000024  00000-0  11245-4 0  9996
2 37214  99.0463 160.9845 0016124 238.8767 121.0821 14.15950754499040
SUOMI NPP               
1 37849U 11061A   20178.83902299  .00000009  00000-0  25203-4 0  9995
2 37849  98.7369 116.6361 0000855 103.9901 275.6484 14.19537914448961
FENGYUN 2F              
1 38049U 12002A   20178.87205734 -.00000360  00000-0  00000-0 0  9993
2 38049   2.0854  83.4767 0001736  78.9650 179.0259  1.00278274 31011
METEOSAT-10 (MSG-3)     
1 38552U 12035B   20178.81694681  .00000059  00000-0  00000-0 0  9999
2 38552   1.0011  15.7737 0000862  16.5889 186.3200  1.00274181 29017
METOP-B                 
1 38771U 12049A   20178.87214674 -.00000020  00000-0  10815-4 0  9991
2 38771  98.6909 238.0351 0001214  45.2843 128.3021 14.21498918403365
FENGYUN 3C              
1 39260U 13052A   20179.09602980 -.00000005  00000-0  18635-4 0  9997
2 39260  98.5493 229.0800 0011078 182.1188 177.9941 14.15840520349988
METEOR-M 2              
1 40069U 14037A   20179.05127581 -.00000010  00000-0  14622-4 0  9993
2 40069  98.5014 216.2241 0004570 250.7369 109.3321 14.20673594309578
HIMAWARI-8              
1 40267U 14060A   20178.96160264 -.00000277  00000-0  00000+0 0  9998
2 40267   0.0539 104.0114 0000799  24.3850 273.9690  1.00270622 20992
FENGYUN 2G              
1 40367U 14090A   20178.76315675 -.00000302  00000-0  00000+0 0  9997
2 40367   2.1062  94.4799 0002105   0.0724 195.0546  1.00265233 20167
METEOSAT-11 (MSG-4)     
1 40732U 15034A   20178.81520209 -.00000003  00000-0  00000-0 0  9998
2 40732   0.8165 273.9287 0003128 215.4675  79.6544  1.00267859 18169
ELEKTRO-L 2             
1 41105U 15074A   20179.18922929 -.00000099  00000-0  00000+0 0  9997
2 41105   1.2229  97.0766 0000903  56.3410 266.4362  1.00272898 16648
HIMAWARI-9              
1 41836U 16064A   20178.87018147 -.00000276  00000-0  00000+0 0  9998
2 41836   0.0181 331.9789 0000512  45.9401 351.5418  1.00272846 13433
GOES 16                 
1 41866U 16071A   20179.08725319 -.00000250  00000-0  00000+0 0  9991
2 41866   0.0176 250.0891 0000739 223.7221 118.0626  1.00269562 13238
FENGYUN 4A              
1 41882U 16077A   20178.93313413 -.00000332  00000-0  00000-0 0  9998
2 41882   0.0376 312.6811 0004347 195.2649 208.1602  1.00274983 13105
CYGFM05                 
1 41884U 16078A   20178.58021585  .00000200  00000-0  12328-4 0  9991
2 41884  34.9573   3.2650 0015016 129.2816 230.9230 15.14635750195490
CYGFM04                 
1 41885U 16078B   20178.81099181  .00000212  00000-0  12770-4 0  9999
2 41885  34.9506 354.9769 0013517 142.4310 217.7348 15.15146383195598
CYGFM02                 
1 41886U 16078C   20178.80382652  .00000207  00000-0  12543-4 0  9999
2 41886  34.9597 356.7593 0014223 138.0404 222.1400 15.15147322195586
CYGFM01                 
1 41887U 16078D   20178.81367200  .00000186  00000-0  11638-4 0  9993
2 41887  34.9541   2.9657 0015498 132.1150 228.0881 15.14448511195519
CYGFM08                 
1 41888U 16078E   20178.80288616  .00000188  00000-0  11623-4 0  9992
2 41888  34.9512 358.7766 0014732 139.2702 220.9113 15.14863843195543
CYGFM06                 
1 41889U 16078F   20179.17812207  .00000210  00000-0  12666-4 0  9997
2 41889  34.9592 353.1227 0013185 141.5733 218.5919 15.15141485195644
CYGFM07                 
1 41890U 16078G   20178.76117612  .00000180  00000-0  11116-4 0  9996
2 41890  34.9530 354.8031 0012966 141.1937 218.9708 15.15139902195581
CYGFM03                 
1 41891U 16078H   20178.49304280  .00000204  00000-0  12343-4 0  9996
2 41891  34.9562 356.7185 0012395 137.5005 222.6668 15.15135496195546
FENGYUN 3D              
1 43010U 17072A   20178.38854178 -.00000045  00000-0 -32160-6 0  9996
2 43010  98.7522 117.6174 0002440  65.6149 294.5286 14.19743999135462
NOAA 20                 
1 43013U 17073A   20178.87090618  .00000004  00000-0  22667-4 0  9997
2 43013  98.7182 116.6717 0000988  66.5972 293.5308 14.19556497134994
GOES 17                 
1 43226U 18022A   20179.06160402  .00000096  00000-0  00000+0 0  9992
2 43226   0.0548 232.5408 0000137 211.3817  76.6888  1.00272057  8560
FENGYUN 2H              
1 43491U 18050A   20178.84632571 -.00000130  00000-0  00000-0 0  9994
2 43491   0.6359 273.9454 0003428 221.6747 163.8373  1.00270476  7630
METOP-C                 
1 43689U 18087A   20178.87550783 -.00000027  00000-0  74397-5 0  9990
2 43689  98.6972 238.3321 0001458 351.8677   8.2476 14.21492642 84936
GEO-KOMPSAT-2A          
1 43823U 18100A   20178.84067499 -.00000345  00000-0  00000-0 0  9998
2 43823   0.0396 183.5846 0001995 247.9737 274.7471  1.00272744  5732
IOD-1 GEMS              
1 44385U 98067QK  20178.59174236  .00009977  00000-0  12528-3 0  9992
2 44385  51.6400 286.5302 0002501   0.2310 359.8684 15.60393699 55927
METEOR-M2 2             
1 44387U 19038A   20179.13580423 -.00000021  00000-0  99580-5 0  9992
2 44387  98.6202 138.9861 0001293 151.4044 208.7206 14.23679643 50910
